QUANTUTONG 1            
1 43158U 18008D   22015.73787940  .00001916  00000+0  11421-3 0  9991
2 43158  97.3754  77.2030 0012682 321.6574 153.2473 15.12270687220013
S-NET D                 
1 43186U 18014G   22015.48789046  .00001581  00000+0  14104-3 0  9999
2 43186  97.6688 284.1269 0012680  91.4509 268.8165 14.97327769216027
S-NET B                 
1 43187U 18014H   22015.48789772  .00001586  00000+0  14148-3 0  9999
2 43187  97.6685 284.0852 0012683  91.3665 268.9010 14.97327085216028
S-NET A                 
1 43188U 18014J   22015.68858354  .00001610  00000+0  14357-3 0  9995
2 43188  97.6690 284.3369 0012674  90.8469 269.4206 14.97326889216054
S-NET C                 
1 43189U 18014K   22015.68912396  .00001616  00000+0  14402-3 0  9990
2 43189  97.6686 284.2732 0012690  90.6603 269.6073 14.97326343214607
FENGMANIU-1 (FMN-1)     
1 43192U 18015A   22015.88255659  .00009825  00000+0  33033-3 0  9990
2 43192  97.5120 158.0646 0012520 208.1951 271.8367 15.30950602220055
SHAONIAN XING           
1 43199U 18015H   22015.83681035  .00006341  00000+0  22371-3 0  9996
2 43199  97.4909 154.2757 0013917 218.8172 291.4189 15.29519087220080
LUOJIA-1 01             
1 43485U 18048B   22015.86207629  .00000316  00000+0  52070-4 0  9992
2 43485  97.9473  99.5373 0010711 339.5250  20.5528 14.77010433195342
SURFSAT                 
1 43614U 18070B   22015.59930198  .00016197  00000+0  33634-3 0  9993
2 43614  93.0201  34.4884 0009798 254.8399 105.1776 15.45597578187390
CP7 (DAVE)              
1 43615U 18070C   22015.53566144  .00015341  00000+0  32345-3 0  9992
2 43615  93.0204  34.3821 0010032 255.8350 104.1793 15.45151429187361
ELFIN-B                 
1 43616U 18070D   22015.54750166  .00023220  00000+0  40880-3 0  9991
2 43616  93.0152  34.9497 0008974 245.2768 114.7558 15.50338325187563
ELFIN-A                 
1 43617U 18070E   22015.54966091  .00024621  00000+0  42093-3 0  9992
2 43617  93.0204  36.0312 0008309 239.8352 120.2086 15.51169843187590
CZ-4B R/B               
1 43656U 18081B   22015.62078239  .00000105  00000+0  49829-4 0  9990
2 43656  99.3769 137.3205 0207991 223.0690 135.4054 14.30503437168502
CUBEBEL-1 (BSUSAT-1)    
1 43666U 18083E   22015.84400362  .00003727  00000+0  17322-3 0  9998
2 43666  97.4384  46.4473 0014986 141.2362 329.3854 15.20508886178279
CHANGSHAGAOXIN (TY 4-01)
1 43669U 18083H   22015.82332112  .00003156  00000+0  15299-3 0  9993
2 43669  97.4308  42.8633 0011329 137.0542  37.4061 15.19199956178119
TEN-KOH                 
1 43677U 18084G   22015.58813056  .00000639  00000+0  70974-4 0  9992
2 43677  97.9428 144.5298 0017087  58.4034 301.8849 14.90664090174901
DIWATA-2B               
1 43678U 18084H   22015.87720564  .00000559  00000+0  60997-4 0  9991
2 43678  97.9475 147.6239 0011439  71.6241 288.6212 14.91883283175102
STARS-AO                
1 43679U 18084J   22015.60049580  .00001136  00000+0  11540-3 0  9996
2 43679  97.9520 148.9232 0010423  78.3912 281.8476 14.92833027175134
AUTCUBE 2               
1 43681U 18084K   22015.35938912  .00000989  00000+0  10240-3 0  9998
2 43681  97.9483 147.5397 0010745  74.0067 286.2334 14.92342639175016
IRVINE01                
1 43693U 18088D   22015.56134225  .00015306  00000+0  54296-3 0  9991
2 43693  85.0317  53.6629 0013331 328.1436  31.9002 15.28861736176804
ES'HAIL 2               
1 43700U 18090A   22015.51350867  .00000158  00000+0  00000+0 0  9999
2 43700   0.0264  54.2439 0002208 271.4123 359.9383  1.00269558 11498
FACSAT-1                
1 43721U 18096C   22015.46166815  .00006310  00000+0  21323-3 0  9991
2 43721  97.3679  96.0130 0014591 236.2162 178.6683 15.30907814174538
CENTAURI-2              
1 43722U 18096D   22015.75382465  .00013598  00000+0  43147-3 0  9999
2 43722  97.3718  97.6343 0014160 231.9649 128.0315 15.32700206174641
3CAT-1                  
1 43728U 18096K   22015.80151731  .00008419  00000+0  26636-3 0  9991
2 43728  97.3727  98.3704 0013944 235.6717 272.6265 15.32933420174682
INNOSAT-2               
1 43738U 18096V   22015.84407374  .00013050  00000+0  35474-3 0  9990
2 43738  97.3789 103.0029 0017995 227.7987 271.7263 15.37521225174988
REAKTOR HELLO WORLD     
1 43743U 18096AA  22015.49208122  .00008098  00000+0  27737-3 0  9996
2 43743  97.3692  96.3618 0015062 241.8063 118.1657 15.30370070174546
ELYSIUM STAR 2 & LFF    
1 43760U 18099C   22015.80509511  .00003950  00000+0  34735-3 0  9997
2 43760  97.6494  87.6945 0014719  60.7721 299.4971 14.97019586170273
2018-099D               
1 43761U 18099D   22015.46606265  .00000565  00000+0  56094-4 0  9996
2 43761  97.6438  86.1655 0015657  66.3853 293.9040 14.95477123170150
AISTECHSAT 2            
1 43768U 18099L   22015.74174888  .00001292  00000+0  12265-3 0  9994
2 43768  97.6391  85.1068 0012753  63.7241 296.5289 14.95162213169869
FOX-1CLIFF (AO-95)      
1 43770U 18099N   22015.68913717  .00001190  00000+0  11189-3 0  9993
2 43770  97.6425  85.9448 0015849  69.9625 290.3300 14.95673886170178
RANGE-A                 
1 43772U 18099Q   22015.66863429  .00002120  00000+0  19327-3 0  9993
2 43772  97.6521  87.2789 0015095  58.6990 301.5707 14.96080529170187
RANGE-B                 
1 43773U 18099R   22015.71535131  .00000924  00000+0  88439-4 0  9997
2 43773  97.6348  85.0621 0014563  58.6094 301.6549 14.95470454170162
2018-099T               
1 43775U 18099T   22015.17312964  .00000421  00000+0  43036-4 0  9992
2 43775  97.6425  85.6266 0015792  63.4298 296.8539 14.95508944170098
MOVE-II                 
1 43780U 18099Y   22015.15134501  .00002185  00000+0  19704-3 0  9998
2 43780  97.6455  86.2387 0014729  68.4943 291.7847 14.96487815170123
SNUSAT-2                
1 43782U 18099AA  22015.42154724  .00001211  00000+0  11318-3 0  9991
2 43782  97.6427  86.0983 0013943  58.2758 301.9820 14.95890195170158
SNUGLITE                
1 43784U 18099AC  22015.41056226  .00001721  00000+0  15802-3 0  9998
2 43784  97.6390  85.7603 0016353  65.0077 295.2841 14.96040772170171
ITASAT 1                
1 43786U 18099AE  22015.43562208  .00000670  00000+0  64764-4 0  9998
2 43786  97.6447  86.5219 0016329  63.8359 296.4540 14.95919713170178
KAZSCISAT-1             
1 43787U 18099AF  22015.14357959  .00002249  00000+0  20201-3 0  9993
2 43787  97.6366  85.3757 0015362  62.2000 298.0777 14.96612358170160
EAGLET-I                
1 43790U 18099AJ  22015.75717275  .00000946  00000+0  88753-4 0  9994
2 43790  97.6440  87.3285 0014830  66.6755 293.6025 14.96228557169955
ESEO                    
1 43792U 18099AL  22015.78106736  .00000300  00000+0  31894-4 0  9991
2 43792  97.6393  86.7553 0014454  64.0194 296.2514 14.95886123170004
CSIM-FD                 
1 43793U 18099AM  22015.46022936  .00002223  00000+0  19707-3 0  9990
2 43793  97.6443  87.2695 0013662  61.3682 298.8913 14.97150217169982
ASTROCAST 0.1           
1 43798U 18099AS  22015.46857260  .00002393  00000+0  21489-3 0  9999
2 43798  97.6446  87.3485 0013169  49.2435 310.9928 14.96590484170225
JY1SAT (JO-97)          
1 43803U 18099AX  22015.69465308  .00001083  00000+0  10081-3 0  9990
2 43803  97.6411  86.5118 0016315  62.6718 297.6163 14.96242736170223
SUOMI-100               
1 43804U 18099AY  22015.17033319  .00000846  00000+0  79978-4 0  9994
2 43804  97.6404  85.9460 0016289  64.3068 295.9833 14.96190774170157
AL-FARABI 2             
1 43805U 18099AZ  22015.53576336  .00001407  00000+0  12861-3 0  9997
2 43805  97.6415  86.6491 0016271  65.0942 295.1996 14.96508811170227
CENTAURI-1              
1 43809U 18099BD  22015.78869328  .00001051  00000+0  98328-4 0  9992
2 43809  97.6412  86.8773 0016241  63.9232 296.3658 14.96108870169945
CHOMPTT                 
1 43855U 18104G   22015.41165133  .00005654  00000+0  22328-3 0  9992
2 43855  85.0378 152.9555 0018555  84.6475 275.6885 15.25112406171386
DAVINCI                 
1 43857U 18104J   22015.41506647  .00020422  00000+0  72577-3 0  9994
2 43857  85.0318 152.0919 0014506 104.9980 255.2873 15.28785853171427
UWE-4                   
1 43880U 18111E   22015.73515920  .00001407  00000+0  12628-3 0  9990
2 43880  97.6777 284.7298 0013243 110.6804 249.5839 14.97264665164844
ZACUBE-2                
1 43907U 18111AH  22015.85081811  .00002043  00000+0  82103-4 0  9993
2 43907  97.2104 267.5993 0018813 261.8224 160.4834 15.25901391170016
MICRODRAGON             
1 43935U 19003D   22015.58667288  .00003290  00000+0  13771-3 0  9992
2 43935  97.1566  52.6527 0017496   2.5773 357.5552 15.24092700166407
AOBA VELOX-IV           
1 43940U 19003J   22015.56188672  .00013057  00000+0  45011-3 0  9995
2 43940  97.1522  56.6579 0020187 338.7176  21.3223 15.29926636166701
M6P                     
1 44109U 19018AF  22015.44905536  .00009076  00000+0  25835-3 0  9990
2 44109  97.4108  98.5294 0051704 317.7811  41.9456 15.34992273155950
FORMOSAT 7-4            
1 44350U 19036M   22015.59673302  .00002498  00000+0  13548-3 0  9996
2 44350  24.0009 354.0098 0006115  61.2235 298.8882 15.08281566140354
PAINANI 1               
1 44365U 19037A   22015.64841504  .00019037  00000+0  40237-3 0  9992
2 44365  45.0022 152.5071 0005297 336.9626  23.1025 15.44917461143548
ACRUX 1                 
1 44369U 19037E   22015.54138057  .00043532  00000+0  62407-3 0  9997
2 44369  45.0031 116.4041 0011930 355.7596   4.3195 15.55428875143912
METEOR-M2 2             
1 44387U 19038A   22015.78693956 -.00000016  00000+0  12282-4 0  9996
2 44387  98.7017 337.9714 0001939  36.7003 323.4315 14.23696939131687
VDNH-80                 
1 44392U 19038G   22015.87106395  .00003190  00000+0  17506-3 0  9996
2 44392  97.6151 345.1400 0019238 303.6038 113.9445 15.14744930139734
D-STAR ONE (LIGHTSAT)   
1 44393U 19038H   22015.54000114  .00005080  00000+0  27700-3 0  9990
2 44393  97.6166 344.6751 0019407 304.4036  55.5360 15.14681604139879
